[{"OBJECT_NAME":"STARLINK-5013","OBJECT_ID":"2023-015AV","EPOCH":"2026-03-09T22:00:01.999584","MEAN_MOTION":15.111897,"ECCENTRICITY":0.00014324,"INCLINATION":42.9998,"RA_OF_ASC_NODE":337.2411,"ARG_OF_PERICENTER":265.0781,"MEAN_ANOMALY":110.1108,"EPHEMERIS_TYPE":0,"CLASSIFICATION_TYPE":"U","NORAD_CAT_ID":55492,"ELEMENT_SET_NO":999,"REV_AT_EPOCH":572,"BSTAR":-0.00088768448,"MEAN_MOTION_DOT":-0.00015354,"MEAN_MOTION_DDOT":0},{"OBJECT_NAME":"GEESAT-4 04","OBJECT_ID":"2025-170D","EPOCH":"2026-03-09T23:17:55.914720","MEAN_MOTION":15.1505395,"ECCENTRICITY":0.00176751,"INCLINATION":49.9794,"RA_OF_ASC_NODE":229.0049,"ARG_OF_PERICENTER":290.2477,"MEAN_ANOMALY":69.6574,"EPHEMERIS_TYPE":0,"CLASSIFICATION_TYPE":"U","NORAD_CAT_ID":65122,"ELEMENT_SET_NO":999,"REV_AT_EPOCH":3230,"BSTAR":0.00059156623,"MEAN_MOTION_DOT":0.00010965,"MEAN_MOTION_DDOT":0}]
